
    {
        "ARG_OF_PERICENTER": 225.7617,
        "BSTAR": 0.00049084338,
        "CLASSIFICATION_TYPE": "U",
        "ECCENTRICITY": 0.00089348,
        "ELEMENT_SET_NO": 999,
        "EPHEMERIS_TYPE": 0,
        "EPOCH": "2026-06-19T14:13:09.931584",
        "INCLINATION": 51.6307,
        "MEAN_ANOMALY": 134.2643,
        "MEAN_MOTION": 15.60167582,
        "MEAN_MOTION_DDOT": 0,
        "MEAN_MOTION_DOT": 0.00040473,
        "NORAD_CAT_ID": 67683,
        "OBJECT_ID": "1998-067XZ",
        "OBJECT_NAME": "KNACKSAT-2",
        "RA_OF_ASC_NODE": 282.3774,
        "REV_AT_EPOCH": 2065
    },
    {
        "ARG_OF_PERICENTER": 271.8433,
        "BSTAR": 0.0011309495,
        "CLASSIFICATION_TYPE": "U",
        "ECCENTRICITY": 0.00087715,
        "ELEMENT_SET_NO": 999,
        "EPHEMERIS_TYPE": 0,
        "EPOCH": "2026-06-19T11:28:25.674816",
        "INCLINATION": 51.622,
        "MEAN_ANOMALY": 88.1562,
        "MEAN_MOTION": 15.77420141,
        "MEAN_MOTION_DDOT": 0,
        "MEAN_MOTION_DOT": 0.00195376,
        "NORAD_CAT_ID": 67684,
        "OBJECT_ID": "1998-067YA",
        "OBJECT_NAME": "CORAL",
        "RA_OF_ASC_NODE": 276.3117,
        "REV_AT_EPOCH": 2072
    },
    {
        "ARG_OF_PERICENTER": 224.2331,
        "BSTAR": 0.00055976598,
        "CLASSIFICATION_TYPE": "U",
        "ECCENTRICITY": 0.00100157,
        "ELEMENT_SET_NO": 999,
        "EPHEMERIS_TYPE": 0,
        "EPOCH": "2026-06-19T14:12:49.851360",
        "INCLINATION": 51.6278,
        "MEAN_ANOMALY": 135.7863,
        "MEAN_MOTION": 15.61809367,
        "MEAN_MOTION_DDOT": 0,
        "MEAN_MOTION_DOT": 0.00049351,
        "NORAD_CAT_ID": 67685,
        "OBJECT_ID": "1998-067YB",
        "OBJECT_NAME": "GXIBA-1",
        "RA_OF_ASC_NODE": 281.6206,
        "REV_AT_EPOCH": 2066
    },
    {
        "ARG_OF_PERICENTER": 219.5167,
        "BSTAR": 0.00073912995,
        "CLASSIFICATION_TYPE": "U",
        "ECCENTRICITY": 0.00053449,
        "ELEMENT_SET_NO": 999,
        "EPHEMERIS_TYPE": 0,
        "EPOCH": "2026-06-19T08:14:40.854624",
        "INCLINATION": 51.6271,
        "MEAN_ANOMALY": 140.5439,
        "MEAN_MOTION": 15.65134468,
        "MEAN_MOTION_DDOT": 0,
        "MEAN_MOTION_DOT": 0.00074622,
        "NORAD_CAT_ID": 67686,
        "OBJECT_ID": "1998-067YC",
        "OBJECT_NAME": "UITMSAT-2",
        "RA_OF_ASC_NODE": 281.4583,
        "REV_AT_EPOCH": 2064
    },
    {
        "ARG_OF_PERICENTER": 207.3704,
        "BSTAR": 0.00052701896,
        "CLASSIFICATION_TYPE": "U",
        "ECCENTRICITY": 0.00058001,
        "ELEMENT_SET_NO": 999,
        "EPHEMERIS_TYPE": 0,
        "EPOCH": "2026-06-19T13:19:17.400864",
        "INCLINATION": 51.6304,
        "MEAN_ANOMALY": 152.6985,
        "MEAN_MOTION": 15.61190573,
        "MEAN_MOTION_DDOT": 0,
        "MEAN_MOTION_DOT": 0.00045233,
        "NORAD_CAT_ID": 67687,
        "OBJECT_ID": "1998-067YD",
        "OBJECT_NAME": "LEOPARD",
        "RA_OF_ASC_NODE": 282.1385,
        "REV_AT_EPOCH": 2057
    },
    {
        "ARG_OF_PERICENTER": 215.3981,
        "BSTAR": 0.00062221057,
        "CLASSIFICATION_TYPE": "U",
        "ECCENTRICITY": 0.00055872,
        "ELEMENT_SET_NO": 999,
        "EPHEMERIS_TYPE": 0,
        "EPOCH": "2026-06-19T14:10:57.034560",
        "INCLINATION": 51.6279,
        "MEAN_ANOMALY": 144.6643,
        "MEAN_MOTION": 15.63572784,
        "MEAN_MOTION_DDOT": 0,
        "MEAN_MOTION_DOT": 0.00058834,
        "NORAD_CAT_ID": 67688,
        "OBJECT_ID": "1998-067YE",
        "OBJECT_NAME": "HMU-SAT2",
        "RA_OF_ASC_NODE": 280.8696,
        "REV_AT_EPOCH": 2059
    },
    {
        "ARG_OF_PERICENTER": 205.0015,
        "BSTAR": 0.0001560528,
        "CLASSIFICATION_TYPE": "U",
        "ECCENTRICITY": 0.00045965,
        "ELEMENT_SET_NO": 999,
        "EPHEMERIS_TYPE": 0,
        "EPOCH": "2026-06-19T12:16:41.638656",
        "INCLINATION": 51.6332,
        "MEAN_ANOMALY": 155.0751,
        "MEAN_MOTION": 15.49315858,
        "MEAN_MOTION_DDOT": 0,
        "MEAN_MOTION_DOT": 8.252e-05,
        "NORAD_CAT_ID": 67796,
        "OBJECT_ID": "2026-031A",
        "OBJECT_NAME": "CREW DRAGON 12",
        "RA_OF_ASC_NODE": 288.5889,
        "REV_AT_EPOCH": 57189
    },
    {
        "ARG_OF_PERICENTER": 205.0015,
        "BSTAR": 0.0001560528,
        "CLASSIFICATION_TYPE": "U",
        "ECCENTRICITY": 0.00045965,
        "ELEMENT_SET_NO": 999,
        "EPHEMERIS_TYPE": 0,
        "EPOCH": "2026-06-19T12:16:41.638656",
        "INCLINATION": 51.6332,
        "MEAN_ANOMALY": 155.0751,
        "MEAN_MOTION": 15.49315858,
        "MEAN_MOTION_DDOT": 0,
        "MEAN_MOTION_DOT": 8.252e-05,
        "NORAD_CAT_ID": 68319,
        "OBJECT_ID": "2026-058A",
        "OBJECT_NAME": "PROGRESS-MS 33",
        "RA_OF_ASC_NODE": 288.5889,
        "REV_AT_EPOCH": 57183
    },
    {
        "ARG_OF_PERICENTER": 205.0015,
        "BSTAR": 0.0001560528,
        "CLASSIFICATION_TYPE": "U",
        "ECCENTRICITY": 0.00045965,
        "ELEMENT_SET_NO": 999,
        "EPHEMERIS_TYPE": 0,
        "EPOCH": "2026-06-19T12:16:41.638656",
        "INCLINATION": 51.6332,
        "MEAN_ANOMALY": 155.0751,
        "MEAN_MOTION": 15.49315858,
        "MEAN_MOTION_DDOT": 0,
        "MEAN_MOTION_DOT": 8.252e-05,
        "NORAD_CAT_ID": 68689,
        "OBJECT_ID": "2026-079A",
        "OBJECT_NAME": "CYGNUS NG-24",
        "RA_OF_ASC_NODE": 288.5889,
        "REV_AT_EPOCH": 57204
    },
    {
        "ARG_OF_PERICENTER": 205.0015,
        "BSTAR": 0.0001560528,
        "CLASSIFICATION_TYPE": "U",
        "ECCENTRICITY": 0.00045965,
        "ELEMENT_SET_NO": 999,
        "EPHEMERIS_TYPE": 0,
        "EPOCH": "2026-06-19T12:16:41.638656",
        "INCLINATION": 51.6332,
        "MEAN_ANOMALY": 155.0751,
        "MEAN_MOTION": 15.49315858,
        "MEAN_MOTION_DDOT": 0,
        "MEAN_MOTION_DOT": 8.252e-05,
        "NORAD_CAT_ID": 68837,
        "OBJECT_ID": "2026-093A",
        "OBJECT_NAME": "PROGRESS-MS 34",
        "RA_OF_ASC_NODE": 288.5889,
        "REV_AT_EPOCH": 57209
    },
    {
        "ARG_OF_PERICENTER": 97.472,
        "BSTAR": 0.0002264613,
        "CLASSIFICATION_TYPE": "U",
        "ECCENTRICITY": 0.00073639,
        "ELEMENT_SET_NO": 999,
        "EPHEMERIS_TYPE": 0,
        "EPOCH": "2026-06-19T12:52:24.981600",
        "INCLINATION": 41.4696,
        "MEAN_ANOMALY": 262.6956,
        "MEAN_MOTION": 15.60899851,
        "MEAN_MOTION_DDOT": 0,
        "MEAN_MOTION_DOT": 0.00019225,
        "NORAD_CAT_ID": 69049,
        "OBJECT_ID": "2026-102A",
        "OBJECT_NAME": "TIANZHOU-10",
        "RA_OF_ASC_NODE": 307.7047,
        "REV_AT_EPOCH": 621
    },
    {
        "ARG_OF_PERICENTER": 97.472,
        "BSTAR": 0.0002264613,
        "CLASSIFICATION_TYPE": "U",
        "ECCENTRICITY": 0.00073639,
        "ELEMENT_SET_NO": 999,
        "EPHEMERIS_TYPE": 0,
        "EPOCH": "2026-06-19T12:52:24.981600",
        "INCLINATION": 41.4696,
        "MEAN_ANOMALY": 262.6956,
        "MEAN_MOTION": 15.60899851,
        "MEAN_MOTION_DDOT": 0,
        "MEAN_MOTION_DOT": 0.00019225,
        "NORAD_CAT_ID": 69180,
        "OBJECT_ID": "2026-113A",
        "OBJECT_NAME": "SHENZHOU-23 (SZ-23)",
        "RA_OF_ASC_NODE": 307.7047,
        "REV_AT_EPOCH": 29364
    }