KNACKSAT-2              
1 67683U 98067XZ  26170.59247606  .00040473  00000+0  49084-3 0  9990
2 67683  51.6307 282.3774 0008934 225.7617 134.2643 15.60167582 20658
CORAL                   
1 67684U 98067YA  26170.47807494  .00195376  00000+0  11309-2 0  9996
2 67684  51.6220 276.3117 0008771 271.8433  88.1562 15.77420141 20720
GXIBA-1                 
1 67685U 98067YB  26170.59224365  .00049351  00000+0  55977-3 0  9991
2 67685  51.6278 281.6206 0010015 224.2331 135.7863 15.61809367 20665
UITMSAT-2               
1 67686U 98067YC  26170.34352841  .00074622  00000+0  73913-3 0  9995
2 67686  51.6271 281.4583 0005344 219.5167 140.5439 15.65134468 20646
LEOPARD                 
1 67687U 98067YD  26170.55506251  .00045233  00000+0  52702-3 0  9994
2 67687  51.6304 282.1385 0005800 207.3704 152.6985 15.61190573 20578
HMU-SAT2                
1 67688U 98067YE  26170.59093790  .00058834  00000+0  62221-3 0  9996
2 67688  51.6279 280.8696 0005587 215.3981 144.6643 15.63572784 20592
CREW DRAGON 12          
1 67796U 26031A   26170.51159304  .00008252  00000+0  15605-3 0  9997
2 67796  51.6332 288.5889 0004596 205.0015 155.0751 15.49315858571895
PROGRESS-MS 33          
1 68319U 26058A   26170.51159304  .00008252  00000+0  15605-3 0  9998
2 68319  51.6332 288.5889 0004596 205.0015 155.0751 15.49315858571831
CYGNUS NG-24            
1 68689U 26079A   26170.51159304  .00008252  00000+0  15605-3 0  9991
2 68689  51.6332 288.5889 0004596 205.0015 155.0751 15.49315858572045
PROGRESS-MS 34          
1 68837U 26093A   26170.51159304  .00008252  00000+0  15605-3 0  9992
2 68837  51.6332 288.5889 0004596 205.0015 155.0751 15.49315858572095
TIANZHOU-10             
1 69049U 26102A   26170.53640025  .00019225  00000+0  22646-3 0  9991
2 69049  41.4696 307.7047 0007363  97.4720 262.6956 15.60899851  6213
SHENZHOU-23 (SZ-23)     
1 69180U 26113A   26170.53640025  .00019225  00000+0  22646-3 0  9999
2 69180  41.4696 307.7047 0007363  97.4720 262.6956 15.60899851293644
